{
  "type": "FeatureCollection",
  "features": [
    {
      "type": "Feature",
      "properties": {
        "norad_id": 36707,
        "name": "FENGYUN 1C DEB",
        "group": "fengyun-1c-debris",
        "lat": -77.0953493818822,
        "lon": 89.93000927320269,
        "alt_km": 875.1548177182685,
        "timestamp": "2025-12-27T19:21:59.037183+00:00",
        "meta_object_name": "FENGYUN 1C DEB",
        "meta_object_id": "1999-025EAD",
        "meta_epoch": "2025-12-21T21:25:47.185536",
        "meta_mean_motion": 14.17337167,
        "meta_eccentricity": 0.00496219,
        "meta_inclination": 98.751,
        "meta_ra_of_asc_node": 41.8648,
        "meta_arg_of_pericenter": 96.1028,
        "meta_mean_anomaly": 264.5804,
        "meta_ephemeris_type": 0,
        "meta_classification_type": "U",
        "meta_norad_cat_id": 36707,
        "meta_element_set_no": 999,
        "meta_rev_at_epoch": 64209,
        "meta_bstar": 0.00072069372,
        "meta_mean_motion_dot": 1.432e-05,
        "meta_mean_motion_ddot": 0,
        "tle_line1": "1 36707U 99025EAD 25355.89290724  .00001432  00000+0  72069-3 0  9995",
        "tle_line2": "2 36707  98.7510  41.8648 0049621  96.1028 264.5804 14.17337167642094"
      },
      "geometry": {
        "type": "Point",
        "coordinates": [
          89.93000927320269,
          -77.0953493818822
        ]
      }
    },
    {
      "type": "Feature",
      "properties": {
        "norad_id": 36710,
        "name": "FENGYUN 1C DEB",
        "group": "fengyun-1c-debris",
        "lat": 26.170282900290196,
        "lon": -116.99903695237963,
        "alt_km": 678.7650874566243,
        "timestamp": "2025-12-27T19:21:59.037191+00:00",
        "meta_object_name": "FENGYUN 1C DEB",
        "meta_object_id": "1999-025EAG",
        "meta_epoch": "2025-12-15T10:11:57.749280",
        "meta_mean_motion": 14.49882943,
        "meta_eccentricity": 0.00679739,
        "meta_inclination": 98.3812,
        "meta_ra_of_asc_node": 46.5328,
        "meta_arg_of_pericenter": 173.535,
        "meta_mean_anomaly": 186.6737,
        "meta_ephemeris_type": 0,
        "meta_classification_type": "U",
        "meta_norad_cat_id": 36710,
        "meta_element_set_no": 999,
        "meta_rev_at_epoch": 64992,
        "meta_bstar": 0.00098752348,
        "meta_mean_motion_dot": 3.884e-05,
        "meta_mean_motion_ddot": 0,
        "tle_line1": "1 36710U 99025EAG 25349.42497395  .00003884  00000+0  98752-3 0  9994",
        "tle_line2": "2 36710  98.3812  46.5328 0067973 173.5350 186.6737 14.49882943649924"
      },
      "geometry": {
        "type": "Point",
        "coordinates": [
          -116.99903695237963,
          26.170282900290196
        ]
      }
    },
    {
      "type": "Feature",
      "properties": {
        "norad_id": 36711,
        "name": "FENGYUN 1C DEB",
        "group": "fengyun-1c-debris",
        "lat": -7.8402963272657065,
        "lon": 26.583527513605922,
        "alt_km": 824.6208542181503,
        "timestamp": "2025-12-27T19:21:59.037201+00:00",
        "meta_object_name": "FENGYUN 1C DEB",
        "meta_object_id": "1999-025EAH",
        "meta_epoch": "2025-12-22T19:33:17.805888",
        "meta_mean_motion": 14.42563106,
        "meta_eccentricity": 0.01001116,
        "meta_inclination": 100.8026,
        "meta_ra_of_asc_node": 18.7671,
        "meta_arg_of_pericenter": 180.6159,
        "meta_mean_anomaly": 179.4915,
        "meta_ephemeris_type": 0,
        "meta_classification_type": "U",
        "meta_norad_cat_id": 36711,
        "meta_element_set_no": 999,
        "meta_rev_at_epoch": 64456,
        "meta_bstar": 0.0021992157,
        "meta_mean_motion_dot": 7.693e-05,
        "meta_mean_motion_ddot": 0,
        "tle_line1": "1 36711U 99025EAH 25356.81478942  .00007693  00000+0  21992-2 0  9996",
        "tle_line2": "2 36711 100.8026  18.7671 0100111 180.6159 179.4915 14.42563106644564"
      },
      "geometry": {
        "type": "Point",
        "coordinates": [
          26.583527513605922,
          -7.8402963272657065
        ]
      }
    },
    {
      "type": "Feature",
      "properties": {
        "norad_id": 36716,
        "name": "FENGYUN 1C DEB",
        "group": "fengyun-1c-debris",
        "lat": -19.409043787269542,
        "lon": -76.0163869338787,
        "alt_km": 1034.9009470885294,
        "timestamp": "2025-12-27T19:21:59.037211+00:00",
        "meta_object_name": "FENGYUN 1C DEB",
        "meta_object_id": "1999-025EAN",
        "meta_epoch": "2025-12-24T13:38:03.454656",
        "meta_mean_motion": 13.8842033,
        "meta_eccentricity": 0.01483644,
        "meta_inclination": 99.2293,
        "meta_ra_of_asc_node": 277.4949,
        "meta_arg_of_pericenter": 196.842,
        "meta_mean_anomaly": 162.7782,
        "meta_ephemeris_type": 0,
        "meta_classification_type": "U",
        "meta_norad_cat_id": 36716,
        "meta_element_set_no": 999,
        "meta_rev_at_epoch": 63095,
        "meta_bstar": 0.00021899669,
        "meta_mean_motion_dot": 2.42e-06,
        "meta_mean_motion_ddot": 0,
        "tle_line1": "1 36716U 99025EAN 25358.56809554  .00000242  00000+0  21900-3 0  9995",
        "tle_line2": "2 36716  99.2293 277.4949 0148364 196.8420 162.7782 13.88420330630955"
      },
      "geometry": {
        "type": "Point",
        "coordinates": [
          -76.0163869338787,
          -19.409043787269542
        ]
      }
    },
    {
      "type": "Feature",
      "properties": {
        "norad_id": 36724,
        "name": "FENGYUN 1C DEB",
        "group": "fengyun-1c-debris",
        "lat": 46.020161969666106,
        "lon": 24.77173220543086,
        "alt_km": 825.8042116742008,
        "timestamp": "2025-12-27T19:21:59.037224+00:00",
        "meta_object_name": "FENGYUN 1C DEB",
        "meta_object_id": "1999-025EAW",
        "meta_epoch": "2025-12-22T01:08:19.052736",
        "meta_mean_motion": 14.25358317,
        "meta_eccentricity": 0.01037225,
        "meta_inclination": 99.4676,
        "meta_ra_of_asc_node": 28.5169,
        "meta_arg_of_pericenter": 171.606,
        "meta_mean_anomaly": 218.6674,
        "meta_ephemeris_type": 0,
        "meta_classification_type": "U",
        "meta_norad_cat_id": 36724,
        "meta_element_set_no": 999,
        "meta_rev_at_epoch": 57605,
        "meta_bstar": 0.0017254927,
        "meta_mean_motion_dot": 4.254e-05,
        "meta_mean_motion_ddot": 0,
        "tle_line1": "1 36724U 99025EAW 25356.04744274  .00004254  00000+0  17255-2 0  9996",
        "tle_line2": "2 36724  99.4676  28.5169 0103722 171.6060 218.6674 14.25358317576058"
      },
      "geometry": {
        "type": "Point",
        "coordinates": [
          24.77173220543086,
          46.020161969666106
        ]
      }
    },
    {
      "type": "Feature",
      "properties": {
        "norad_id": 36729,
        "name": "FENGYUN 1C DEB",
        "group": "fengyun-1c-debris",
        "lat": 7.64036252881675,
        "lon": -18.042402901879484,
        "alt_km": 890.0295138185229,
        "timestamp": "2025-12-27T19:21:59.037233+00:00",
        "meta_object_name": "FENGYUN 1C DEB",
        "meta_object_id": "1999-025EBB",
        "meta_epoch": "2025-12-26T17:47:21.353568",
        "meta_mean_motion": 14.10330348,
        "meta_eccentricity": 0.00455959,
        "meta_inclination": 98.7094,
        "meta_ra_of_asc_node": 342.1037,
        "meta_arg_of_pericenter": 215.6277,
        "meta_mean_anomaly": 144.1848,
        "meta_ephemeris_type": 0,
        "meta_classification_type": "U",
        "meta_norad_cat_id": 36729,
        "meta_element_set_no": 999,
        "meta_rev_at_epoch": 87449,
        "meta_bstar": 0.00031529101,
        "meta_mean_motion_dot": 5.22e-06,
        "meta_mean_motion_ddot": 0,
        "tle_line1": "1 36729U 99025EBB 25360.74121937  .00000522  00000+0  31529-3 0  9993",
        "tle_line2": "2 36729  98.7094 342.1037 0045595 215.6277 144.1848 14.10330348874493"
      },
      "geometry": {
        "type": "Point",
        "coordinates": [
          -18.042402901879484,
          7.64036252881675
        ]
      }
    },
    {
      "type": "Feature",
      "properties": {
        "norad_id": 36734,
        "name": "FENGYUN 1C DEB",
        "group": "fengyun-1c-debris",
        "lat": -70.88177804525007,
        "lon": -158.19167974066622,
        "alt_km": 805.9644847754762,
        "timestamp": "2025-12-27T19:21:59.037242+00:00",
        "meta_object_name": "FENGYUN 1C DEB",
        "meta_object_id": "1999-025EBG",
        "meta_epoch": "2025-12-26T01:46:06.958560",
        "meta_mean_motion": 14.25955945,
        "meta_eccentricity": 0.00366843,
        "meta_inclination": 99.055,
        "meta_ra_of_asc_node": 47.4086,
        "meta_arg_of_pericenter": 182.1652,
        "meta_mean_anomaly": 177.9373,
        "meta_ephemeris_type": 0,
        "meta_classification_type": "U",
        "meta_norad_cat_id": 36734,
        "meta_element_set_no": 999,
        "meta_rev_at_epoch": 82924,
        "meta_bstar": 0.0016001299,
        "meta_mean_motion_dot": 3.797e-05,
        "meta_mean_motion_ddot": 0,
        "tle_line1": "1 36734U 99025EBG 25360.07369165  .00003797  00000+0  16001-2 0  9996",
        "tle_line2": "2 36734  99.0550  47.4086 0036684 182.1652 177.9373 14.25955945829245"
      },
      "geometry": {
        "type": "Point",
        "coordinates": [
          -158.19167974066622,
          -70.88177804525007
        ]
      }
    }
  ]
}